[{"OBJECT_NAME":"ARCSTONE","OBJECT_ID":"2025-135N","EPOCH":"2026-03-09T21:21:29.017152","MEAN_MOTION":15.28638458,"ECCENTRICITY":0.00041199,"INCLINATION":97.4495,"RA_OF_ASC_NODE":185.9194,"ARG_OF_PERICENTER":166.7863,"MEAN_ANOMALY":193.3485,"EPHEMERIS_TYPE":0,"CLASSIFICATION_TYPE":"U","NORAD_CAT_ID":64540,"ELEMENT_SET_NO":999,"REV_AT_EPOCH":3984,"BSTAR":0.00094899777,"MEAN_MOTION_DOT":0.00026427,"MEAN_MOTION_DDOT":0},{"OBJECT_NAME":"STARLINK-35579","OBJECT_ID":"2025-268F","EPOCH":"2026-03-08T03:29:54.515904","MEAN_MOTION":15.27606511,"ECCENTRICITY":0.00021729,"INCLINATION":43.0021,"RA_OF_ASC_NODE":355.7805,"ARG_OF_PERICENTER":277.407,"MEAN_ANOMALY":82.6535,"EPHEMERIS_TYPE":0,"CLASSIFICATION_TYPE":"U","NORAD_CAT_ID":66562,"ELEMENT_SET_NO":999,"REV_AT_EPOCH":1772,"BSTAR":0.0017783536,"MEAN_MOTION_DOT":0.00049041,"MEAN_MOTION_DDOT":0}]
